{
    "links": {
        "self": "http://www.neowsapp.com/rest/v1/neo/3879257?api_key=iIulBulltgU6a56xZRHN4H3l9WmuAYTsLGpBGhQ2"
    },
    "id": "3879257",
    "neo_reference_id": "3879257",
    "name": "(2019 UH1)",
    "designation": "2019 UH1",
    "nasa_jpl_url": "http://ssd.jpl.nasa.gov/sbdb.cgi?sstr=3879257",
    "absolute_magnitude_h": 24.2,
    "estimated_diameter": {
        "kilometers": {
            "estimated_diameter_min": 0.0384197891,
            "estimated_diameter_max": 0.0859092601
        },
        "meters": {
            "estimated_diameter_min": 38.4197891064,
            "estimated_diameter_max": 85.9092601232
        },
        "miles": {
            "estimated_diameter_min": 0.0238729428,
            "estimated_diameter_max": 0.0533815229
        },
        "feet": {
            "estimated_diameter_min": 126.0491808919,
            "estimated_diameter_max": 281.8545369825
        }
    },
    "is_potentially_hazardous_asteroid": false,
    "close_approach_data": [
        {
            "close_approach_date": "2013-10-03",
            "close_approach_date_full": "2013-Oct-03 17:58",
            "epoch_date_close_approach": 1380823080000,
            "relative_velocity": {
                "kilometers_per_second": "20.8492170045",
                "kilometers_per_hour": "75057.1812161089",
                "miles_per_hour": "46637.6135173095"
            },
            "miss_distance": {
                "astronomical": "0.3984972712",
                "lunar": "155.0154384968",
                "kilometers": "59614342.972332344",
                "miles": "37042635.0331965872"
            },
            "orbiting_body": "Earth"
        },
        {
            "close_approach_date": "2016-10-17",
            "close_approach_date_full": "2016-Oct-17 15:02",
            "epoch_date_close_approach": 1476716520000,
            "relative_velocity": {
                "kilometers_per_second": "14.5700943397",
                "kilometers_per_hour": "52452.3396229571",
                "miles_per_hour": "32591.844028498"
            },
            "miss_distance": {
                "astronomical": "0.1922919656",
                "lunar": "74.8015746184",
                "kilometers": "28766468.471873272",
                "miles": "17874654.6496722736"
            },
            "orbiting_body": "Earth"
        },
        {
            "close_approach_date": "2019-11-13",
            "close_approach_date_full": "2019-Nov-13 03:36",
            "epoch_date_close_approach": 1573616160000,
            "relative_velocity": {
                "kilometers_per_second": "9.0812298121",
                "kilometers_per_hour": "32692.4273236065",
                "miles_per_hour": "20313.8029667154"
            },
            "miss_distance": {
                "astronomical": "0.0243665838",
                "lunar": "9.4786010982",
                "kilometers": "3645189.035656506",
                "miles": "2265015.4365955428"
            },
            "orbiting_body": "Earth"
        }
    ],
    "orbital_data": {
        "orbit_id": "8",
        "orbit_determination_date": "2020-09-11 07:45:10",
        "first_observation_date": "2019-10-19",
        "last_observation_date": "2019-11-11",
        "data_arc_in_days": 23,
        "observations_used": 42,
        "orbit_uncertainty": "7",
        "minimum_orbit_intersection": ".0229713",
        "jupiter_tisserand_invariant": "3.546",
        "epoch_osculation": "2459000.5",
        "eccentricity": ".5454908991376032",
        "semi_major_axis": "2.091342376572155",
        "inclination": "5.588380311317249",
        "ascending_node_longitude": "243.6062985556723",
        "orbital_period": "1104.679089357887",
        "perihelion_distance": ".9505341431712383",
        "perihelion_argument": "190.608161684968",
        "aphelion_distance": "3.232150609973072",
        "perihelion_time": "2458819.048145621770",
        "mean_anomaly": "59.13270940444119",
        "mean_motion": ".3258864981406102",
        "equinox": "J2000",
        "orbit_class": {
            "orbit_class_type": "APO",
            "orbit_class_description": "Near-Earth asteroid orbits which cross the Earth’s orbit similar to that of 1862 Apollo",
            "orbit_class_range": "a (semi-major axis) > 1.0 AU; q (perihelion) < 1.017 AU"
        }
    },
    "is_sentry_object": false
}